ONEWEB-0300             
1 49089U 21075Q   26001.06870045 -.00000069  00000+0 -22619-3 0  9993
2 49089  87.8925  23.8418 0002002  88.8573 271.2785 13.12442663213280
ONEWEB-0301             
1 49090U 21075R   26001.12884446  .00000492  00000+0  13322-2 0  9990
2 49090  87.8922  23.8314 0002055  87.0209 273.1155 13.12443764212654
ONEWEB-0302             
1 49091U 21075S   26001.11527866  .00000401  00000+0  10805-2 0  9993
2 49091  87.8924  23.8422 0001396  97.7313 262.3974 13.12443074212639
ONEWEB-0304             
1 49092U 21075T   26001.10876029  .00000072  00000+0  15219-3 0  9990
2 49092  87.9098  39.0809 0001818 100.5111 259.6225 13.17648065211571
ONEWEB-0305             
1 49093U 21075U   26001.10203102  .00000073  00000+0  15489-3 0  9997
2 49093  87.9101  39.0600 0001934 109.0458 251.0883 13.17648624211604
ONEWEB-0308             
1 49094U 21075V   26001.10849145  .00000269  00000+0  71251-3 0  9997
2 49094  87.8925  23.8367 0001725  91.5062 268.6264 13.12444083212643
ONEWEB-0309             
1 49095U 21075W   26001.10540439  .00000066  00000+0  13636-3 0  9990
2 49095  87.9099  39.0752 0001354 100.5492 259.5792 13.17649473211571
ONEWEB-0310             
1 49096U 21075X   26001.12376158  .00000520  00000+0  14105-2 0  9994
2 49096  87.8918  23.8690 0001697  92.1281 268.0042 13.12444243213270
